{"type": "FeatureCollection", "features": [{"type": "Feature", "properties": {"norad_id": 66514, "name": "SENTINEL-6B", "group": "last-30-days", "lat": 64.53807763682639, "lon": -138.56891224401696, "alt_km": 1334.3718052609174, "timestamp": "2025-12-17T13:48:36.278270+00:00", "meta": {"OBJECT_NAME": "SENTINEL-6B", "OBJECT_ID": "2025-264A", "EPOCH": "2025-12-12T06:01:21.430272", "MEAN_MOTION": 12.81479576, "ECCENTRICITY": 0.0007847, "INCLINATION": 66.0385, "RA_OF_ASC_NODE": 163.4531, "ARG_OF_PERICENTER": 270.1745, "MEAN_ANOMALY": 89.8371, "EPHEMERIS_TYPE": 0, "CLASSIFICATION_TYPE": "U", "NORAD_CAT_ID": 66514, "ELEMENT_SET_NO": 999, "REV_AT_EPOCH": 322, "BSTAR": 0.00018864317, "MEAN_MOTION_DOT": -1.7e-07, "MEAN_MOTION_DDOT": 0}, "tle": {"line1": "1 66514U 25264A   25346.25094248 -.00000017  00000+0  18864-3 0  9993", "line2": "2 66514  66.0385 163.4531 0007847 270.1745  89.8371 12.81479576  3220"}}, "geometry": {"type": "Point", "coordinates": [-138.56891224401696, 64.53807763682639]}}, {"type": "Feature", "properties": {"norad_id": 66516, "name": "STARLINK-35924", "group": "last-30-days", "lat": -31.008118750800605, "lon": -13.911118170951228, "alt_km": 445.7200746123617, "timestamp": "2025-12-17T13:48:36.278331+00:00", "meta": {"OBJECT_NAME": "STARLINK-35924", "OBJECT_ID": "2025-265A", "EPOCH": "2025-12-17T03:07:52.902624", "MEAN_MOTION": 15.40727417, "ECCENTRICITY": 0.00016061, "INCLINATION": 43.0004, "RA_OF_ASC_NODE": 28.8193, "ARG_OF_PERICENTER": 277.4675, "MEAN_ANOMALY": 82.5999, "EPHEMERIS_TYPE": 0, "CLASSIFICATION_TYPE": "U", "NORAD_CAT_ID": 66516, "ELEMENT_SET_NO": 999, "REV_AT_EPOCH": 443, "BSTAR": 0.00064167592, "MEAN_MOTION_DOT": 0.00026619, "MEAN_MOTION_DDOT": 0}, "tle": {"line1": "1 66516U 25265A   25351.13047341  .00026619  00000+0  64168-3 0  9994", "line2": "2 66516  43.0004  28.8193 0001606 277.4675  82.5999 15.40727417  4430"}}, "geometry": {"type": "Point", "coordinates": [-13.911118170951228, -31.008118750800605]}}, {"type": "Feature", "properties": {"norad_id": 66517, "name": "STARLINK-35937", "group": "last-30-days", "lat": 27.909558823445675, "lon": 171.16987972493845, "alt_km": 435.40005686766654, "timestamp": "2025-12-17T13:48:36.278349+00:00", "meta": {"OBJECT_NAME": "STARLINK-35937", "OBJECT_ID": "2025-265B", "EPOCH": "2025-12-17T08:00:04.999680", "MEAN_MOTION": 15.43637434, "ECCENTRICITY": 0.00013509, "INCLINATION": 43.0009, "RA_OF_ASC_NODE": 27.2088, "ARG_OF_PERICENTER": 254.6657, "MEAN_ANOMALY": 335.9129, "EPHEMERIS_TYPE": 0, "CLASSIFICATION_TYPE": "U", "NORAD_CAT_ID": 66517, "ELEMENT_SET_NO": 999, "REV_AT_EPOCH": 573, "BSTAR": -0.058698177, "MEAN_MOTION_DOT": -0.02405287, "MEAN_MOTION_DDOT": 0}, "tle": {"line1": "1 66517U 25265B   25351.33339120 -.02405287  00000+0 -58698-1 0  9991", "line2": "2 66517  43.0009  27.2088 0001350 254.6657 335.9129 15.43637434  5731"}}, "geometry": {"type": "Point", "coordinates": [171.16987972493845, 27.909558823445675]}}, {"type": "Feature", "properties": {"norad_id": 66518, "name": "STARLINK-35962", "group": "last-30-days", "lat": 31.704099036525463, "lon": 67.53485532239425, "alt_km": 440.49205304674433, "timestamp": "2025-12-17T13:48:36.278362+00:00", "meta": {"OBJECT_NAME": "STARLINK-35962", "OBJECT_ID": "2025-265C", "EPOCH": "2025-12-17T08:00:04.999680", "MEAN_MOTION": 15.40637733, "ECCENTRICITY": 0.00022024, "INCLINATION": 43.0006, "RA_OF_ASC_NODE": 27.4106, "ARG_OF_PERICENTER": 256.2652, "MEAN_ANOMALY": 250.2451, "EPHEMERIS_TYPE": 0, "CLASSIFICATION_TYPE": "U", "NORAD_CAT_ID": 66518, "ELEMENT_SET_NO": 999, "REV_AT_EPOCH": 573, "BSTAR": 0.00034819706, "MEAN_MOTION_DOT": 0.00014239, "MEAN_MOTION_DDOT": 0}, "tle": {"line1": "1 66518U 25265C   25351.33339120  .00014239  00000+0  34820-3 0  9994", "line2": "2 66518  43.0006  27.4106 0002202 256.2652 250.2451 15.40637733  5738"}}, "geometry": {"type": "Point", "coordinates": [67.53485532239425, 31.704099036525463]}}, {"type": "Feature", "properties": {"norad_id": 66519, "name": "STARLINK-35931", "group": "last-30-days", "lat": 8.027534150025344, "lon": -162.9800694103044, "alt_km": 413.9811670329982, "timestamp": "2025-12-17T13:48:36.278375+00:00", "meta": {"OBJECT_NAME": "STARLINK-35931", "OBJECT_ID": "2025-265D", "EPOCH": "2025-12-17T03:48:47.216448", "MEAN_MOTION": 15.50621764, "ECCENTRICITY": 0.00019004, "INCLINATION": 42.998, "RA_OF_ASC_NODE": 28.1628, "ARG_OF_PERICENTER": 280.8936, "MEAN_ANOMALY": 79.1711, "EPHEMERIS_TYPE": 0, "CLASSIFICATION_TYPE": "U", "NORAD_CAT_ID": 66519, "ELEMENT_SET_NO": 999, "REV_AT_EPOCH": 444, "BSTAR": 0.0010363401, "MEAN_MOTION_DOT": 0.00061025, "MEAN_MOTION_DDOT": 0}, "tle": {"line1": "1 66519U 25265D   25351.15887982  .00061025  00000+0  10363-2 0  9999", "line2": "2 66519  42.9980  28.1628 0001900 280.8936  79.1711 15.50621764  4449"}}, "geometry": {"type": "Point", "coordinates": [-162.9800694103044, 8.027534150025344]}}, {"type": "Feature", "properties": {"norad_id": 66520, "name": "STARLINK-35952", "group": "last-30-days", "lat": 0.38575013189079943, "lon": 26.546083434102517, "alt_km": 443.81290998095665, "timestamp": "2025-12-17T13:48:36.278389+00:00", "meta": {"OBJECT_NAME": "STARLINK-35952", "OBJECT_ID": "2025-265E", "EPOCH": "2025-12-17T00:00:02.999808", "MEAN_MOTION": 15.40649949, "ECCENTRICITY": 0.00010936, "INCLINATION": 43.0006, "RA_OF_ASC_NODE": 29.4485, "ARG_OF_PERICENTER": 259.7367, "MEAN_ANOMALY": 145.7624, "EPHEMERIS_TYPE": 0, "CLASSIFICATION_TYPE": "U", "NORAD_CAT_ID": 66520, "ELEMENT_SET_NO": 999, "REV_AT_EPOCH": 567, "BSTAR": 0.0013290392, "MEAN_MOTION_DOT": 0.00055526, "MEAN_MOTION_DDOT": 0}, "tle": {"line1": "1 66520U 25265E   25351.00003472  .00055526  00000+0  13290-2 0  9990", "line2": "2 66520  43.0006  29.4485 0001093 259.7367 145.7624 15.40649949  5676"}}, "geometry": {"type": "Point", "coordinates": [26.546083434102517, 0.38575013189079943]}}, {"type": "Feature", "properties": {"norad_id": 66521, "name": "STARLINK-35915", "group": "last-30-days", "lat": 42.936973821032915, "lon": 112.76201139524005, "alt_km": 437.9737842460381, "timestamp": "2025-12-17T13:48:36.278401+00:00", "meta": {"OBJECT_NAME": "STARLINK-35915", "OBJECT_ID": "2025-265F", "EPOCH": "2025-12-17T08:00:04.999680", "MEAN_MOTION": 15.40684524, "ECCENTRICITY": 0.00010527, "INCLINATION": 43.0008, "RA_OF_ASC_NODE": 27.3197, "ARG_OF_PERICENTER": 266.4325, "MEAN_ANOMALY": 277.2548, "EPHEMERIS_TYPE": 0, "CLASSIFICATION_TYPE": "U", "NORAD_CAT_ID": 66521, "ELEMENT_SET_NO": 999, "REV_AT_EPOCH": 573, "BSTAR": 0.0002646176, "MEAN_MOTION_DOT": 0.0001076, "MEAN_MOTION_DDOT": 0}, "tle": {"line1": "1 66521U 25265F   25351.33339120  .00010760  00000+0  26462-3 0  9996", "line2": "2 66521  43.0008  27.3197 0001052 266.4325 277.2548 15.40684524  5731"}}, "geometry": {"type": "Point", "coordinates": [112.76201139524005, 42.936973821032915]}}, {"type": "Feature", "properties": {"norad_id": 66522, "name": "STARLINK-35946", "group": "last-30-days", "lat": 3.6499837403182123, "lon": -158.21741530111944, "alt_km": 414.29191071347395, "timestamp": "2025-12-17T13:48:36.278412+00:00", "meta": {"OBJECT_NAME": "STARLINK-35946", "OBJECT_ID": "2025-265G", "EPOCH": "2025-12-16T03:03:11.151360", "MEAN_MOTION": 15.50628679, "ECCENTRICITY": 0.00014256, "INCLINATION": 42.9976, "RA_OF_ASC_NODE": 34.1834, "ARG_OF_PERICENTER": 304.2198, "MEAN_ANOMALY": 55.8527, "EPHEMERIS_TYPE": 0, "CLASSIFICATION_TYPE": "U", "NORAD_CAT_ID": 66522, "ELEMENT_SET_NO": 999, "REV_AT_EPOCH": 428, "BSTAR": 0.0011852833, "MEAN_MOTION_DOT": 0.00069941, "MEAN_MOTION_DDOT": 0}, "tle": {"line1": "1 66522U 25265G   25350.12721240  .00069941  00000+0  11853-2 0  9993", "line2": "2 66522  42.9976  34.1834 0001425 304.2198  55.8527 15.50628679  4287"}}, "geometry": {"type": "Point", "coordinates": [-158.21741530111944, 3.6499837403182123]}}, {"type": "Feature", "properties": {"norad_id": 66523, "name": "STARLINK-35969", "group": "last-30-days", "lat": 2.807664990121797, "lon": -157.31406276941397, "alt_km": 414.3842570328443, "timestamp": "2025-12-17T13:48:36.278422+00:00", "meta": {"OBJECT_NAME": "STARLINK-35969", "OBJECT_ID": "2025-265H", "EPOCH": "2025-12-17T03:46:47.958528", "MEAN_MOTION": 15.50607333, "ECCENTRICITY": 0.00015762, "INCLINATION": 42.9962, "RA_OF_ASC_NODE": 28.1486, "ARG_OF_PERICENTER": 272.7983, "MEAN_ANOMALY": 87.2696, "EPHEMERIS_TYPE": 0, "CLASSIFICATION_TYPE": "U", "NORAD_CAT_ID": 66523, "ELEMENT_SET_NO": 999, "REV_AT_EPOCH": 444, "BSTAR": 0.0010242012, "MEAN_MOTION_DOT": 0.00060269, "MEAN_MOTION_DDOT": 0}, "tle": {"line1": "1 66523U 25265H   25351.15749952  .00060269  00000+0  10242-2 0  9993", "line2": "2 66523  42.9962  28.1486 0001576 272.7983  87.2696 15.50607333  4445"}}, "geometry": {"type": "Point", "coordinates": [-157.31406276941397, 2.807664990121797]}}, {"type": "Feature", "properties": {"norad_id": 66524, "name": "STARLINK-35687", "group": "last-30-days", "lat": -16.237481337741638, "lon": 7.986651572641539, "alt_km": 445.23936258529557, "timestamp": "2025-12-17T13:48:36.278432+00:00", "meta": {"OBJECT_NAME": "STARLINK-35687", "OBJECT_ID": "2025-265J", "EPOCH": "2025-12-17T03:01:25.884192", "MEAN_MOTION": 15.40728606, "ECCENTRICITY": 0.0001019, "INCLINATION": 43.0029, "RA_OF_ASC_NODE": 28.7873, "ARG_OF_PERICENTER": 263.2844, "MEAN_ANOMALY": 96.7897, "EPHEMERIS_TYPE": 0, "CLASSIFICATION_TYPE": "U", "NORAD_CAT_ID": 66524, "ELEMENT_SET_NO": 999, "REV_AT_EPOCH": 443, "BSTAR": 0.00080546237, "MEAN_MOTION_DOT": 0.00033522, "MEAN_MOTION_DDOT": 0}, "tle": {"line1": "1 66524U 25265J   25351.12599403  .00033522  00000+0  80546-3 0  9992", "line2": "2 66524  43.0029  28.7873 0001019 263.2844  96.7897 15.40728606  4434"}}, "geometry": {"type": "Point", "coordinates": [7.986651572641539, -16.237481337741638]}}]}